IRIDIUM 39              
1 25042U 97069D   25058.54331675  .00001653  00000+0  43079-3 0  9998
2 25042  86.3859 258.1393 0016558 318.3176  41.6765 14.48939809433081
IRIDIUM 38              
1 25043U 97069E   25058.57572065  .00001027  00000+0  33356-3 0  9994
2 25043  86.3912 279.2963 0003920  92.4044 267.7602 14.37939499430207
IRIDIUM 42              
1 25077U 97077A   25058.37809046  .00000973  00000+0  32705-3 0  9996
2 25077  86.3926 285.4192 0002673  93.8372 266.3130 14.36189636425434
IRIDIUM 44              
1 25078U 97077B   25058.48970458  .00001141  00000+0  35567-3 0  9992
2 25078  86.3905 267.5680 0003413  60.1623 299.9915 14.40063941427917
IRIDIUM 45              
1 25104U 97082A   25058.50175137  .00027440  00000+0  11162-2 0  9996
2 25104  86.3573 100.9690 0128934  22.6831 338.0035 15.16973740435388
IRIDIUM 24              
1 25105U 97082B   25058.46456168  .00001233  00000+0  37023-3 0  9995
2 25105  86.3918 126.8516 0013564  83.2369 277.0374 14.41914777427401
IRIDIUM 51              
1 25262U 98018A   25058.53227072  .00049568  00000+0  14256-2 0  9992
2 25262  86.3853 109.7632 0100730 309.6291  49.6098 15.30590295430205
IRIDIUM 57              
1 25273U 98019B   25058.61978788  .00001136  00000+0  38632-3 0  9995
2 25273  86.4019 191.1174 0002117  93.6565 266.4874 14.35757121409060
